[{"OBJECT_NAME":"QIANFAN-26","OBJECT_ID":"2024-185H","EPOCH":"2026-03-09T23:12:51.629472","MEAN_MOTION":13.77863596,"ECCENTRICITY":0.00078495,"INCLINATION":88.9749,"RA_OF_ASC_NODE":70.3172,"ARG_OF_PERICENTER":102.881,"MEAN_ANOMALY":257.3233,"EPHEMERIS_TYPE":0,"CLASSIFICATION_TYPE":"U","NORAD_CAT_ID":61559,"ELEMENT_SET_NO":999,"REV_AT_EPOCH":8068,"BSTAR":0.00026503001,"MEAN_MOTION_DOT":2.78e-6,"MEAN_MOTION_DDOT":0},{"OBJECT_NAME":"COSMOS 971","OBJECT_ID":"1977-122A","EPOCH":"2026-03-09T19:55:20.290080","MEAN_MOTION":13.73420767,"ECCENTRICITY":0.00200188,"INCLINATION":82.9377,"RA_OF_ASC_NODE":319.8463,"ARG_OF_PERICENTER":301.1272,"MEAN_ANOMALY":131.2356,"EPHEMERIS_TYPE":0,"CLASSIFICATION_TYPE":"U","NORAD_CAT_ID":10536,"ELEMENT_SET_NO":999,"REV_AT_EPOCH":41550,"BSTAR":4.7823958e-5,"MEAN_MOTION_DOT":5.9e-7,"MEAN_MOTION_DDOT":0}]
